{
 "generated_at": "2026-06-18T09:14:20Z",
 "sources": [
  {
   "name": "CelesTrak",
   "url": "https://celestrak.org/NORAD/elements/",
   "license": "frei verfügbar; Attribution. Ursprünglich USSPACECOM/Space-Track."
  },
  {
   "name": "GCAT (J. McDowell, planet4589.org)",
   "url": "https://planet4589.org/space/gcat/",
   "license": "CC-BY 4.0"
  }
 ],
 "satellites": [
  {
   "norad": 43010,
   "name": "FENGYUN 3D",
   "intl": "2017-072A",
   "group": "weather",
   "gcat": {
    "class": "C",
    "category": "MET",
    "owner": "NSMC",
    "state": "CN"
   },
   "omm": {
    "OBJECT_NAME": "FENGYUN 3D",
    "OBJECT_ID": "2017-072A",
    "EPOCH": "2026-06-17T22:08:31.164288",
    "MEAN_MOTION": 14.19738837,
    "ECCENTRICITY": 0.00025377,
    "INCLINATION": 99.0126,
    "RA_OF_ASC_NODE": 143.3584,
    "ARG_OF_PERICENTER": 61.5377,
    "MEAN_ANOMALY": 298.6054,
    "EPHEMERIS_TYPE": 0,
    "CLASSIFICATION_TYPE": "U",
    "NORAD_CAT_ID": 43010,
    "ELEMENT_SET_NO": 999,
    "REV_AT_EPOCH": 44509,
    "BSTAR": -0.000010503042,
    "MEAN_MOTION_DOT": -6.8e-7,
    "MEAN_MOTION_DDOT": 0
   }
  },
  {
   "norad": 49008,
   "name": "FENGYUN 3E",
   "intl": "2021-062A",
   "group": "weather",
   "gcat": {
    "class": "C",
    "category": "MET",
    "owner": "NSMC",
    "state": "CN"
   },
   "omm": {
    "OBJECT_NAME": "FENGYUN 3E",
    "OBJECT_ID": "2021-062A",
    "EPOCH": "2026-06-17T23:26:38.326272",
    "MEAN_MOTION": 14.19904692,
    "ECCENTRICITY": 0.00028197,
    "INCLINATION": 98.7487,
    "RA_OF_ASC_NODE": 172.3758,
    "ARG_OF_PERICENTER": 85.1425,
    "MEAN_ANOMALY": 275.0073,
    "EPHEMERIS_TYPE": 0,
    "CLASSIFICATION_TYPE": "U",
    "NORAD_CAT_ID": 49008,
    "ELEMENT_SET_NO": 999,
    "REV_AT_EPOCH": 25669,
    "BSTAR": 0.000033164298,
    "MEAN_MOTION_DOT": 2.6e-7,
    "MEAN_MOTION_DDOT": 0
   }
  },
  {
   "norad": 57490,
   "name": "FENGYUN 3F",
   "intl": "2023-111A",
   "group": "weather",
   "gcat": {
    "class": "C",
    "category": "MET",
    "owner": "NSMC",
    "state": "CN"
   },
   "omm": {
    "OBJECT_NAME": "FENGYUN 3F",
    "OBJECT_ID": "2023-111A",
    "EPOCH": "2026-06-17T23:03:27.292320",
    "MEAN_MOTION": 14.19939198,
    "ECCENTRICITY": 0.00015937,
    "INCLINATION": 98.6836,
    "RA_OF_ASC_NODE": 238.955,
    "ARG_OF_PERICENTER": 92.8881,
    "MEAN_ANOMALY": 267.2478,
    "EPHEMERIS_TYPE": 0,
    "CLASSIFICATION_TYPE": "U",
    "NORAD_CAT_ID": 57490,
    "ELEMENT_SET_NO": 999,
    "REV_AT_EPOCH": 14897,
    "BSTAR": 0.000034895098,
    "MEAN_MOTION_DOT": 3.1e-7,
    "MEAN_MOTION_DDOT": 0
   }
  },
  {
   "norad": 56232,
   "name": "FENGYUN 3G",
   "intl": "2023-055A",
   "group": "weather",
   "gcat": {
    "class": "C",
    "category": "MET",
    "owner": "NSMC",
    "state": "CN"
   },
   "omm": {
    "OBJECT_NAME": "FENGYUN 3G",
    "OBJECT_ID": "2023-055A",
    "EPOCH": "2026-06-17T22:38:05.998272",
    "MEAN_MOTION": 15.5265955,
    "ECCENTRICITY": 0.0007017,
    "INCLINATION": 49.9936,
    "RA_OF_ASC_NODE": 342.1251,
    "ARG_OF_PERICENTER": 299.5283,
    "MEAN_ANOMALY": 60.4984,
    "EPHEMERIS_TYPE": 0,
    "CLASSIFICATION_TYPE": "U",
    "NORAD_CAT_ID": 56232,
    "ELEMENT_SET_NO": 999,
    "REV_AT_EPOCH": 18012,
    "BSTAR": 0.00033621998,
    "MEAN_MOTION_DOT": 0.00020737,
    "MEAN_MOTION_DDOT": 0
   }
  },
  {
   "norad": 65815,
   "name": "FENGYUN 3H",
   "intl": "2025-219A",
   "group": "weather",
   "gcat": {
    "class": "C",
    "category": "MET",
    "owner": "NSMC",
    "state": "CN"
   },
   "omm": {
    "OBJECT_NAME": "FENGYUN 3H",
    "OBJECT_ID": "2025-219A",
    "EPOCH": "2026-06-17T19:35:18.402144",
    "MEAN_MOTION": 14.19920549,
    "ECCENTRICITY": 0.00015911,
    "INCLINATION": 98.6768,
    "RA_OF_ASC_NODE": 109.5731,
    "ARG_OF_PERICENTER": 76.2688,
    "MEAN_ANOMALY": 283.8666,
    "EPHEMERIS_TYPE": 0,
    "CLASSIFICATION_TYPE": "U",
    "NORAD_CAT_ID": 65815,
    "ELEMENT_SET_NO": 999,
    "REV_AT_EPOCH": 3747,
    "BSTAR": 0.000037845176,
    "MEAN_MOTION_DOT": 3.7e-7,
    "MEAN_MOTION_DDOT": 0
   }
  },
  {
   "norad": 41882,
   "name": "FENGYUN 4A",
   "intl": "2016-077A",
   "group": "weather",
   "gcat": {
    "class": "C",
    "category": "MET",
    "owner": "NSMC",
    "state": "CN"
   },
   "omm": {
    "OBJECT_NAME": "FENGYUN 4A",
    "OBJECT_ID": "2016-077A",
    "EPOCH": "2026-06-17T23:49:23.497248",
    "MEAN_MOTION": 1.00268223,
    "ECCENTRICITY": 0.0008586,
    "INCLINATION": 2.3256,
    "RA_OF_ASC_NODE": 80.279,
    "ARG_OF_PERICENTER": 153.3107,
    "MEAN_ANOMALY": 153.7451,
    "EPHEMERIS_TYPE": 0,
    "CLASSIFICATION_TYPE": "U",
    "NORAD_CAT_ID": 41882,
    "ELEMENT_SET_NO": 999,
    "REV_AT_EPOCH": 3493,
    "BSTAR": 0,
    "MEAN_MOTION_DOT": -0.00000364,
    "MEAN_MOTION_DDOT": 0
   }
  },
  {
   "norad": 42920,
   "name": "FORMOSAT-5",
   "intl": "2017-049A",
   "group": "resource",
   "gcat": {
    "class": "C",
    "category": "IMG/SCI",
    "owner": "NSPO",
    "state": "TW"
   },
   "omm": {
    "OBJECT_NAME": "FORMOSAT-5",
    "OBJECT_ID": "2017-049A",
    "EPOCH": "2026-06-17T21:07:51.980736",
    "MEAN_MOTION": 14.50899106,
    "ECCENTRICITY": 0.00126727,
    "INCLINATION": 98.2255,
    "RA_OF_ASC_NODE": 244.1748,
    "ARG_OF_PERICENTER": 82.4479,
    "MEAN_ANOMALY": 277.8155,
    "EPHEMERIS_TYPE": 0,
    "CLASSIFICATION_TYPE": "U",
    "NORAD_CAT_ID": 42920,
    "ELEMENT_SET_NO": 999,
    "REV_AT_EPOCH": 46677,
    "BSTAR": 0.000042690567,
    "MEAN_MOTION_DOT": 0.00000125,
    "MEAN_MOTION_DDOT": 0
   }
  },
  {
   "norad": 39150,
   "name": "GAOFEN-1",
   "intl": "2013-018A",
   "group": "resource",
   "gcat": {
    "class": "C",
    "category": "IMG",
    "owner": "CNSAS",
    "state": "CN"
   },
   "omm": {
    "OBJECT_NAME": "GAOFEN-1",
    "OBJECT_ID": "2013-018A",
    "EPOCH": "2026-06-17T22:39:19.949760",
    "MEAN_MOTION": 14.76535421,
    "ECCENTRICITY": 0.00156857,
    "INCLINATION": 97.9097,
    "RA_OF_ASC_NODE": 240.9963,
    "ARG_OF_PERICENTER": 263.8797,
    "MEAN_ANOMALY": 96.0626,
    "EPHEMERIS_TYPE": 0,
    "CLASSIFICATION_TYPE": "U",
    "NORAD_CAT_ID": 39150,
    "ELEMENT_SET_NO": 999,
    "REV_AT_EPOCH": 70835,
    "BSTAR": -0.000002400287,
    "MEAN_MOTION_DOT": -6.8e-7,
    "MEAN_MOTION_DDOT": 0
   }
  },
  {
   "norad": 43259,
   "name": "GAOFEN-1 02",
   "intl": "2018-031A",
   "group": "resource",
   "gcat": {
    "class": "C",
    "category": "IMG",
    "owner": "CNSAS",
    "state": "CN"
   },
   "omm": {
    "OBJECT_NAME": "GAOFEN-1 02",
    "OBJECT_ID": "2018-031A",
    "EPOCH": "2026-06-17T23:25:43.824288",
    "MEAN_MOTION": 14.76456194,
    "ECCENTRICITY": 0.00038148,
    "INCLINATION": 98.0527,
    "RA_OF_ASC_NODE": 231.5011,
    "ARG_OF_PERICENTER": 31.8796,
    "MEAN_ANOMALY": 328.2644,
    "EPHEMERIS_TYPE": 0,
    "CLASSIFICATION_TYPE": "U",
    "NORAD_CAT_ID": 43259,
    "ELEMENT_SET_NO": 999,
    "REV_AT_EPOCH": 44281,
    "BSTAR": 0.000033291724,
    "MEAN_MOTION_DOT": 0.0000018,
    "MEAN_MOTION_DDOT": 0
   }
  },
  {
   "norad": 43260,
   "name": "GAOFEN-1 03",
   "intl": "2018-031B",
   "group": "resource",
   "gcat": {
    "class": "C",
    "category": "IMG",
    "owner": "CNSAS",
    "state": "CN"
   },
   "omm": {
    "OBJECT_NAME": "GAOFEN-1 03",
    "OBJECT_ID": "2018-031B",
    "EPOCH": "2026-06-17T22:54:15.291360",
    "MEAN_MOTION": 14.7647009,
    "ECCENTRICITY": 0.0003729,
    "INCLINATION": 98.0517,
    "RA_OF_ASC_NODE": 231.3378,
    "ARG_OF_PERICENTER": 77.5866,
    "MEAN_ANOMALY": 282.5761,
    "EPHEMERIS_TYPE": 0,
    "CLASSIFICATION_TYPE": "U",
    "NORAD_CAT_ID": 43260,
    "ELEMENT_SET_NO": 999,
    "REV_AT_EPOCH": 44280,
    "BSTAR": 0.000088340209,
    "MEAN_MOTION_DOT": 0.00000563,
    "MEAN_MOTION_DDOT": 0
   }
  }
 ]
}
